AMC-1 (GE-1)            
1 24315U 96054A   23109.48256251  .00000058  00000+0  00000+0 0  9998
2 24315   6.3471  70.4685 0003347 319.6453 220.0194  1.00272840 34746
AMC-3 (GE-3)            
1 24936U 97050A   23109.45002359 -.00000267  00000+0  00000+0 0  9992
2 24936   5.2971  76.5188 0003058 304.8824 275.8875  1.00271171 40859
ASTRA 1G                
1 25071U 97076A   23109.14424507  .00000108  00000+0  00000+0 0  9993
2 25071   6.9482  65.8543 0004534 318.3596 254.0826  1.00273011 92922
ASTRA 2A                
1 25462U 98050A   23109.56438080  .00000062  00000+0  00000+0 0  9996
2 25462   4.1732  82.2234 0003253 298.8361  86.6919  1.00270656 34765
AMC-4 (GE-4)            
1 25954U 99060A   23109.42749934 -.00000231  00000+0  00000+0 0  9991
2 25954   2.2647  86.6767 0002241 325.4258 261.9734  0.99134458 31960
NSS-11 (AAP-1)          
1 26554U 00059A   23109.47195337  .00000015  00000+0  00000+0 0  9994
2 26554   0.0573  64.4626 0002433 323.0747 165.6573  1.00270130 29711
AMC-6 (GE-6)            
1 26580U 00067A   23109.46929428  .00000095  00000+0  00000+0 0  9995
2 26580   0.0567  70.9667 0002101 334.0598 192.2155  1.00273260 82323
ASTRA 2D                
1 26638U 00081A   23109.28317868 -.00000208  00000+0  00000+0 0  9991
2 26638   7.9448  58.3909 0002032  20.2505 178.5748  0.99002170 41311
AMC-8 (GE-8)            
1 26639U 00081B   23109.29477160 -.00000136  00000+0  00000+0 0  9995
2 26639   3.1378  86.3898 0004877 264.8370 328.4483  0.99152855 81733
ASTRA 2C                
1 26853U 01025A   23109.45002465 -.00000265  00000+0  00000+0 0  9995
2 26853   5.3202  76.3358 0002865 307.4210 273.0593  1.00270019 33463
NSS-7                   
1 27414U 02019A   23109.21781848 -.00000165  00000+0  00000+0 0  9995
2 27414   6.6166  68.7043 0002840 318.6483 238.1124  1.00271734 76986
NSS-6                   
1 27603U 02057A   23109.54198745  .00000100  00000+0  00000+0 0  9999
2 27603   2.3882  88.0503 0003160 289.8071 215.1438  1.00268925 74460
AMC-11 (GE-11)          
1 28252U 04017A   23109.48648493 -.00000059  00000+0  00000+0 0  9995
2 28252   0.0225  88.3696 0001777 264.7300 278.2451  1.00271448 69296
AMC-15                  
1 28446U 04041A   23109.42414770 -.00000098  00000+0  00000+0 0  9993
2 28446   0.0556  64.3210 0002496 338.0872 212.4871  1.00271804 67731
NSS-10 (AMC-12)         
1 28526U 05003A   23109.07103302 -.00000258  00000+0  00000+0 0  9996
2 28526   3.5460  84.0048 0003023 287.9848 183.0439  1.00272620 41576
ASTRA 1KR               
1 29055U 06012A   23109.37340872  .00000111  00000+0  00000+0 0  9990
2 29055   0.0131 267.5719 0001096  68.2676  24.9910  1.00276224 34147
AMC-18                  
1 29644U 06054B   23109.49206347 -.00000225  00000+0  00000+0 0  9998
2 29644   0.0575  70.8563 0002244 317.6167 272.9877  1.00271604 59957
ASTRA 1L                
1 31306U 07016A   23107.14652837  .00000106  00000+0  00000+0 0  9991
2 31306   0.0220  37.1352 0004376 302.6236 297.1998  1.00269659 33405
ASTRA 4A (SIRIUS 4)     
1 32299U 07057A   23109.36613535  .00000022  00000+0  00000+0 0  9993
2 32299   0.0208  94.3469 0002374 288.0265 321.4327  1.00270038 40084
AMC-21                  
1 33275U 08038B   23109.48369566  .00000027  00000+0  00000+0 0  9998
2 33275   0.0642  83.3006 0002844 308.4091 224.8267  1.00272264 53910
ASTRA 1M                
1 33436U 08057A   23109.51246005  .00000110  00000+0  00000+0 0  9997
2 33436   0.0851  90.3313 0003022 345.6622 335.0104  1.00268821 34145
CIEL-2                  
1 33453U 08063A   23109.48291118  .00000049  00000+0  00000+0 0  9995
2 33453   0.0148 238.4185 0003183 175.7257 198.1782  1.00273675 52557
NSS-9                   
1 33749U 09008A   23109.58799389  .00000062  00000+0  00000+0 0  9992
2 33749   0.0141  80.4417 0002068 299.8972 221.8195  1.00270696 51959
SES-7 (PROTOSTAR 2)     
1 34941U 09027A   23108.45937797 -.00000357  00000+0  00000+0 0  9998
2 34941   0.1005  85.2244 0001552 239.5182 155.1784  1.00269494 51032
NSS-12                  
1 36032U 09058A   23109.57132972  .00000062  00000+0  00000+0 0  9993
2 36032   0.0028 127.6595 0002658 266.3168  76.0887  1.00272517 49345
SES-1                   
1 36516U 10016A   23109.48848972 -.00000124  00000+0  00000+0 0  9990
2 36516   0.0539  66.3129 0002422 320.2220 255.6314  1.00271848 47466
ASTRA 3B                
1 36581U 10021A   23109.51333169  .00000128  00000+0  00000+0 0  9992
2 36581   0.1098  69.3067 0003424 314.5347  31.7996  1.00273293 47298
SES-3                   
1 37748U 11035A   23109.48805389 -.00000111  00000+0  00000+0 0  9991
2 37748   0.0393  23.3802 0002233  13.0479 243.5822  1.00268755 43117
ASTRA 1N                
1 37775U 11041A   23109.37340872  .00000110  00000+0  00000+0 0  9995
2 37775   0.0929  61.3771 0005641 335.0579 324.3916  1.00270875 32940
SES-2                   
1 37809U 11049A   23109.49127899 -.00000205  00000+0  00000+0 0  9992
2 37809   0.0559  69.9876 0002349 316.5163 270.6952  1.00272319 42378
QUETZSAT 1              
1 37826U 11054A   23109.49328378 -.00000251  00000+0  00000+0 0  9993
2 37826   0.0381  50.5209 0002321 343.4584 273.9271  1.00272865 42525
SES-4                   
1 38087U 12007A   23109.36081830 -.00000178  00000+0  00000+0 0  9995
2 38087   0.0165  88.5526 0002441 303.0170 283.5179  1.00271284 40654
SES-5                   
1 38652U 12036A   23109.29451010  .00000024  00000+0  00000+0 0  9997
2 38652   0.0505 294.3639 0001854  87.4518 296.3125  1.00270342 32904
ASTRA 2F                
1 38778U 12051A   23109.51420333  .00000141  00000+0  00000+0 0  9992
2 38778   0.0631 246.7344 0001100  15.1682 158.7530  1.00273657 29540
SES-6                   
1 39172U 13026A   23109.50051847 -.00000270  00000+0  00000+0 0  9997
2 39172   0.0260 333.1555 0002453  47.8041 326.0522  1.00271234 36149
O3B FM5                 
1 39188U 13031A   23109.30982995 -.00000024  00000+0  00000+0 0  9992
2 39188   0.0608 351.7907 0002975  39.9126 328.3134  5.00115492179266
O3B FM4                 
1 39189U 13031B   23108.36618724 -.00000024  00000+0  00000+0 0  9994
2 39189   0.0411  14.8879 0002923  15.9052 329.2226  5.00115993179234
O3B FM2                 
1 39190U 13031C   23109.45733671 -.00000024  00000+0  00000+0 0  9996
2 39190   0.0379  20.7667 0002829   8.9735 330.2747  5.00115202179340
O3B PFM                 
1 39191U 13031D   23109.48337117 -.00000024  00000+0  00000+0 0  9995
2 39191   0.0547 358.5609 0002652  28.6179 332.8340  5.00115967178907
ASTRA 2E                
1 39285U 13056A   23109.51429050  .00000141  00000+0  00000+0 0  9997
2 39285   0.0609  14.5686 0002747  14.3699  32.0412  1.00272736 34856
SES-8                   
1 39460U 13071A   23109.61564280 -.00000279  00000+0  00000+0 0  9998
2 39460   0.0110 224.9000 0002534 191.0014 108.1665  1.00270810 32857
ASTRA 5B                
1 39617U 14011B   23109.29982716  .00000144  00000+0  00000+0 0  9999
2 39617   0.0490 326.5019 0003340  62.3150 317.7415  1.00270959 33089
O3B FM3                 
1 40079U 14038A   23109.13819107 -.00000024  00000+0  00000+0 0  9996
2 40079   0.0454   6.2787 0002773 328.7317  24.9750  5.00116670155267
O3B FM7                 
1 40080U 14038B   23109.48434273 -.00000024  00000+0  00000+0 0  9993
2 40080   0.0409   6.4415 0004032  43.0984 310.4942  5.00115710160116
O3B FM6                 
1 40081U 14038C   23109.31092523 -.00000024  00000+0  00000+0 0  9994
2 40081   0.0455   7.6004 0002746  19.4085 333.0042  5.00115288160059
O3B FM8                 
1 40082U 14038D   23107.96544034 -.00000024  00000+0  00000+0 0  9993
2 40082   0.0444  11.2658 0002568  15.3920 333.3539  5.00115786160102
O3B FM10                
1 40348U 14083A   23109.39096211 -.00000024  00000+0  00000+0 0  9996
2 40348   0.0540   3.9534 0002666  23.8583 332.2014  5.00115281152122
O3B FM11                
1 40349U 14083B   23109.40432865 -.00000024  00000+0  00000+0 0  9998
2 40349   0.0516 359.6074 0003340  32.7562 327.6558  5.00115484152140
O3B FM12                
1 40350U 14083C   23109.03179842 -.00000024  00000+0  00000+0 0  9992
2 40350   0.0512   0.5332 0002864  25.2968 334.1831  5.00115368152131
O3B FM9                 
1 40351U 14083D   23109.45812197 -.00000024  00000+0  00000+0 0  9996
2 40351   0.0514 358.3035 0002747  30.2615 331.4489  5.00116113152300
ASTRA 2G                
1 40364U 14089A   23109.51420333  .00000140  00000+0  00000+0 0  9998
2 40364   0.0251  31.9713 0004709  11.4638  17.2037  1.00270574 30384
SES-9                   
1 41380U 16013A   23108.77410375 -.00000356  00000+0  00000+0 0  9998
2 41380   0.0163 272.9082 0001982 148.2152 172.4613  1.00270534 25857
SES-10                  
1 42432U 17017A   23108.92171976 -.00000283  00000+0  00000+0 0  9999
2 42432   0.0420  68.4120 0002661 325.1721  78.1026  1.00271632 22167
SES-15                  
1 42709U 17026A   23109.50847845  .00000050  00000+0  00000+0 0  9997
2 42709   0.0398  31.1874 0000234 344.8813 245.1731  1.00271282 22569
SES-11 (ECHOSTAR 105)   
1 42967U 17063A   23109.01855142 -.00000100  00000+0  00000+0 0  9996
2 42967   0.0539  71.9682 0001872 288.5630 108.0630  1.00271773 20143
SES-14                  
1 43175U 18012B   23109.49912383 -.00000288  00000+0  00000+0 0  9993
2 43175   0.0145 292.4984 0000926  99.7482 307.2716  1.00270465 19489
O3B FM15                
1 43231U 18024A   23109.52401526 -.00000024  00000+0  00000+0 0  9993
2 43231   0.0563   6.6469 0002954  19.2190 334.1479  5.00116388 93265
O3B FM16                
1 43232U 18024B   23109.37760203 -.00000024  00000+0  00000+0 0  9997
2 43232   0.0597   8.8819 0002975  17.3473 333.7848  5.00116146 93179
O3B FM14                
1 43233U 18024C   23109.41748524 -.00000024  00000+0  00000+0 0  9995
2 43233   0.0606  10.0891 0003060  19.3514 330.5756  5.00115601 93178
O3B FM13                
1 43234U 18024D   23108.47165255 -.00000024  00000+0  00000+0 0  9995
2 43234   0.0672 351.4068 0003527  23.8233 344.7792  5.00115325 93255
